{"type": "FeatureCollection", "features": [{"type": "Feature", "properties": {"norad_id": 26766, "name": "INTELSAT 10 (IS-10)", "group": "intelsat", "lat": -8.635203432156194, "lon": -27.4515973166213, "alt_km": 36102.29824661579, "timestamp": "2025-12-13T07:35:41.207690+00:00", "meta": {"OBJECT_NAME": "INTELSAT 10 (IS-10)", "OBJECT_ID": "2001-019A", "EPOCH": "2025-12-12T13:59:22.280064", "MEAN_MOTION": 0.99078624, "ECCENTRICITY": 0.00077602, "INCLINATION": 8.6297, "RA_OF_ASC_NODE": 61.1594, "ARG_OF_PERICENTER": 225.253, "MEAN_ANOMALY": 144.4037, "EPHEMERIS_TYPE": 0, "CLASSIFICATION_TYPE": "U", "NORAD_CAT_ID": 26766, "ELEMENT_SET_NO": 999, "REV_AT_EPOCH": 4373, "BSTAR": 0, "MEAN_MOTION_DOT": -2.8e-06, "MEAN_MOTION_DDOT": 0}, "tle": {"line1": "1 26766U 01019A   25346.58289676 -.00000280  00000+0  00000+0 0  9998", "line2": "2 26766   8.6297  61.1594 0007760 225.2530 144.4037  0.99078624 43731"}}, "geometry": {"type": "Point", "coordinates": [-27.4515973166213, -8.635203432156194]}}, {"type": "Feature", "properties": {"norad_id": 26900, "name": "INTELSAT 902 (IS-902)", "group": "intelsat", "lat": 5.37601058776072, "lon": 145.9443567317457, "alt_km": 35792.743342165304, "timestamp": "2025-12-13T07:35:41.207710+00:00", "meta": {"OBJECT_NAME": "INTELSAT 902 (IS-902)", "OBJECT_ID": "2001-039A", "EPOCH": "2025-12-11T04:42:42.842016", "MEAN_MOTION": 1.00272526, "ECCENTRICITY": 0.00044264, "INCLINATION": 5.6424, "RA_OF_ASC_NODE": 74.0881, "ARG_OF_PERICENTER": 184.9809, "MEAN_ANOMALY": 201.6699, "EPHEMERIS_TYPE": 0, "CLASSIFICATION_TYPE": "U", "NORAD_CAT_ID": 26900, "ELEMENT_SET_NO": 999, "REV_AT_EPOCH": 8881, "BSTAR": 0, "MEAN_MOTION_DOT": -2.78e-06, "MEAN_MOTION_DDOT": 0}, "tle": {"line1": "1 26900U 01039A   25345.19632919 -.00000278  00000+0  00000+0 0  9995", "line2": "2 26900   5.6424  74.0881 0004426 184.9809 201.6699  1.00272526 88816"}}, "geometry": {"type": "Point", "coordinates": [145.9443567317457, 5.37601058776072]}}, {"type": "Feature", "properties": {"norad_id": 27380, "name": "INTELSAT 904 (IS-904)", "group": "intelsat", "lat": 6.44724869617302, "lon": 164.67790960184112, "alt_km": 35789.651441116665, "timestamp": "2025-12-13T07:35:41.207723+00:00", "meta": {"OBJECT_NAME": "INTELSAT 904 (IS-904)", "OBJECT_ID": "2002-007A", "EPOCH": "2025-12-12T23:36:13.851360", "MEAN_MOTION": 1.00272685, "ECCENTRICITY": 0.00015329, "INCLINATION": 6.4555, "RA_OF_ASC_NODE": 71.4294, "ARG_OF_PERICENTER": 229.1955, "MEAN_ANOMALY": 103.8506, "EPHEMERIS_TYPE": 0, "CLASSIFICATION_TYPE": "U", "NORAD_CAT_ID": 27380, "ELEMENT_SET_NO": 999, "REV_AT_EPOCH": 4989, "BSTAR": 0, "MEAN_MOTION_DOT": -2.15e-06, "MEAN_MOTION_DDOT": 0}, "tle": {"line1": "1 27380U 02007A   25346.98349365 -.00000215  00000+0  00000+0 0  9993", "line2": "2 27380   6.4555  71.4294 0001532 229.1955 103.8506  1.00272685 49892"}}, "geometry": {"type": "Point", "coordinates": [164.67790960184112, 6.44724869617302]}}, {"type": "Feature", "properties": {"norad_id": 27426, "name": "DIRECTV 5 (TEMPO 1)", "group": "intelsat", "lat": 0.6619410605361613, "lon": 86.02486395798441, "alt_km": 35800.416013342285, "timestamp": "2025-12-13T07:35:41.207734+00:00", "meta": {"OBJECT_NAME": "DIRECTV 5 (TEMPO 1)", "OBJECT_ID": "2002-023A", "EPOCH": "2025-12-12T21:30:45.107424", "MEAN_MOTION": 1.00272109, "ECCENTRICITY": 0.00034627, "INCLINATION": 4.4028, "RA_OF_ASC_NODE": 77.6516, "ARG_OF_PERICENTER": 196.387, "MEAN_ANOMALY": 20.3613, "EPHEMERIS_TYPE": 0, "CLASSIFICATION_TYPE": "U", "NORAD_CAT_ID": 27426, "ELEMENT_SET_NO": 999, "REV_AT_EPOCH": 8625, "BSTAR": 0, "MEAN_MOTION_DOT": -4.6e-07, "MEAN_MOTION_DDOT": 0}, "tle": {"line1": "1 27426U 02023A   25346.89635541 -.00000046  00000+0  00000+0 0  9998", "line2": "2 27426   4.4028  77.6516 0003462 196.3870  20.3613  1.00272109 86250"}}, "geometry": {"type": "Point", "coordinates": [86.02486395798441, 0.6619410605361613]}}, {"type": "Feature", "properties": {"norad_id": 27438, "name": "INTELSAT 905 (IS-905)", "group": "intelsat", "lat": -1.3998763923564885, "lon": 59.06797795465425, "alt_km": 35795.57332748961, "timestamp": "2025-12-13T07:35:41.207745+00:00", "meta": {"OBJECT_NAME": "INTELSAT 905 (IS-905)", "OBJECT_ID": "2002-027A", "EPOCH": "2025-12-12T10:15:53.786304", "MEAN_MOTION": 1.00273335, "ECCENTRICITY": 0.00027053, "INCLINATION": 6.2853, "RA_OF_ASC_NODE": 72.0601, "ARG_OF_PERICENTER": 197.9433, "MEAN_ANOMALY": 188.1472, "EPHEMERIS_TYPE": 0, "CLASSIFICATION_TYPE": "U", "NORAD_CAT_ID": 27438, "ELEMENT_SET_NO": 999, "REV_AT_EPOCH": 4949, "BSTAR": 0, "MEAN_MOTION_DOT": 1.03e-06, "MEAN_MOTION_DDOT": 0}, "tle": {"line1": "1 27438U 02027A   25346.42770586  .00000103  00000+0  00000+0 0  9996", "line2": "2 27438   6.2853  72.0601 0002705 197.9433 188.1472  1.00273335 49497"}}, "geometry": {"type": "Point", "coordinates": [59.06797795465425, -1.3998763923564885]}}, {"type": "Feature", "properties": {"norad_id": 27445, "name": "GALAXY 3C (G-3C)", "group": "intelsat", "lat": 1.1756207377350738, "lon": 101.26020353472886, "alt_km": 35784.2226406255, "timestamp": "2025-12-13T07:35:41.207756+00:00", "meta": {"OBJECT_NAME": "GALAXY 3C (G-3C)", "OBJECT_ID": "2002-030A", "EPOCH": "2025-12-12T23:18:08.085024", "MEAN_MOTION": 1.00271516, "ECCENTRICITY": 0.00011084, "INCLINATION": 3.265, "RA_OF_ASC_NODE": 80.5046, "ARG_OF_PERICENTER": 88.0134, "MEAN_ANOMALY": 168.0613, "EPHEMERIS_TYPE": 0, "CLASSIFICATION_TYPE": "U", "NORAD_CAT_ID": 27445, "ELEMENT_SET_NO": 999, "REV_AT_EPOCH": 4462, "BSTAR": 0, "MEAN_MOTION_DOT": -1.4e-06, "MEAN_MOTION_DDOT": 0}, "tle": {"line1": "1 27445U 02030A   25346.97092691 -.00000140  00000+0  00000+0 0  9994", "line2": "2 27445   3.2650  80.5046 0001108  88.0134 168.0613  1.00271516 44621"}}, "geometry": {"type": "Point", "coordinates": [101.26020353472886, 1.1756207377350738]}}, {"type": "Feature", "properties": {"norad_id": 27513, "name": "INTELSAT 906 (IS-906)", "group": "intelsat", "lat": -0.4892185394881025, "lon": -99.73188216325329, "alt_km": 35760.25206313717, "timestamp": "2025-12-13T07:35:41.207767+00:00", "meta": {"OBJECT_NAME": "INTELSAT 906 (IS-906)", "OBJECT_ID": "2002-041A", "EPOCH": "2025-12-12T20:28:51.278592", "MEAN_MOTION": 1.00271514, "ECCENTRICITY": 0.00061881, "INCLINATION": 5.3292, "RA_OF_ASC_NODE": 75.2298, "ARG_OF_PERICENTER": 192.8592, "MEAN_ANOMALY": 185.0466, "EPHEMERIS_TYPE": 0, "CLASSIFICATION_TYPE": "U", "NORAD_CAT_ID": 27513, "ELEMENT_SET_NO": 999, "REV_AT_EPOCH": 8516, "BSTAR": 0, "MEAN_MOTION_DOT": 2.4e-07, "MEAN_MOTION_DDOT": 0}, "tle": {"line1": "1 27513U 02041A   25346.85337128  .00000024  00000+0  00000+0 0  9996", "line2": "2 27513   5.3292  75.2298 0006188 192.8592 185.0466  1.00271514 85164"}}, "geometry": {"type": "Point", "coordinates": [-99.73188216325329, -0.4892185394881025]}}, {"type": "Feature", "properties": {"norad_id": 27954, "name": "GALAXY 13 (HORIZONS-1)", "group": "intelsat", "lat": -0.5872018609627522, "lon": 46.175641170586815, "alt_km": 35793.77175418191, "timestamp": "2025-12-13T07:35:41.207778+00:00", "meta": {"OBJECT_NAME": "GALAXY 13 (HORIZONS-1)", "OBJECT_ID": "2003-044A", "EPOCH": "2025-12-12T23:02:24.591840", "MEAN_MOTION": 1.00271639, "ECCENTRICITY": 0.00020554, "INCLINATION": 0.9362, "RA_OF_ASC_NODE": 86.4662, "ARG_OF_PERICENTER": 168.6306, "MEAN_ANOMALY": 22.3996, "EPHEMERIS_TYPE": 0, "CLASSIFICATION_TYPE": "U", "NORAD_CAT_ID": 27954, "ELEMENT_SET_NO": 999, "REV_AT_EPOCH": 4470, "BSTAR": 0, "MEAN_MOTION_DOT": 1.45e-06, "MEAN_MOTION_DDOT": 0}, "tle": {"line1": "1 27954U 03044A   25346.96000685  .00000145  00000+0  00000+0 0  9990", "line2": "2 27954   0.9362  86.4662 0002055 168.6306  22.3996  1.00271639 44708"}}, "geometry": {"type": "Point", "coordinates": [46.175641170586815, -0.5872018609627522]}}, {"type": "Feature", "properties": {"norad_id": 28358, "name": "INTELSAT 10-02", "group": "intelsat", "lat": 0.0033943239054261623, "lon": -164.81198518150978, "alt_km": 35786.84332541299, "timestamp": "2025-12-13T07:35:41.207789+00:00", "meta": {"OBJECT_NAME": "INTELSAT 10-02", "OBJECT_ID": "2004-022A", "EPOCH": "2025-12-12T22:02:12.093792", "MEAN_MOTION": 1.00271112, "ECCENTRICITY": 0.0001067, "INCLINATION": 0.0226, "RA_OF_ASC_NODE": 63.6504, "ARG_OF_PERICENTER": 229.2505, "MEAN_ANOMALY": 118.5436, "EPHEMERIS_TYPE": 0, "CLASSIFICATION_TYPE": "U", "NORAD_CAT_ID": 28358, "ELEMENT_SET_NO": 999, "REV_AT_EPOCH": 7868, "BSTAR": 0, "MEAN_MOTION_DOT": 2e-08, "MEAN_MOTION_DDOT": 0}, "tle": {"line1": "1 28358U 04022A   25346.91819553  .00000002  00000+0  00000+0 0  9995", "line2": "2 28358   0.0226  63.6504 0001067 229.2505 118.5436  1.00271112 78683"}}, "geometry": {"type": "Point", "coordinates": [-164.81198518150978, 0.0033943239054261623]}}, {"type": "Feature", "properties": {"norad_id": 28626, "name": "XM-3 (RHYTHM)", "group": "intelsat", "lat": -0.1354232082678595, "lon": -52.26320375984156, "alt_km": 36155.47915130584, "timestamp": "2025-12-13T07:35:41.207800+00:00", "meta": {"OBJECT_NAME": "XM-3 (RHYTHM)", "OBJECT_ID": "2005-008A", "EPOCH": "2025-12-12T20:52:06.198816", "MEAN_MOTION": 0.98952395, "ECCENTRICITY": 0.00015604, "INCLINATION": 0.1751, "RA_OF_ASC_NODE": 81.5582, "ARG_OF_PERICENTER": 271.1485, "MEAN_ANOMALY": 155.8368, "EPHEMERIS_TYPE": 0, "CLASSIFICATION_TYPE": "U", "NORAD_CAT_ID": 28626, "ELEMENT_SET_NO": 999, "REV_AT_EPOCH": 4075, "BSTAR": 0, "MEAN_MOTION_DOT": -1.45e-06, "MEAN_MOTION_DDOT": 0}, "tle": {"line1": "1 28626U 05008A   25346.86951619 -.00000145  00000+0  00000+0 0  9991", "line2": "2 28626   0.1751  81.5582 0001560 271.1485 155.8368  0.98952395 40751"}}, "geometry": {"type": "Point", "coordinates": [-52.26320375984156, -0.1354232082678595]}}]}